{
    "links": {
        "self": "http://www.neowsapp.com/rest/v1/neo/3577067?api_key=iIulBulltgU6a56xZRHN4H3l9WmuAYTsLGpBGhQ2"
    },
    "id": "3577067",
    "neo_reference_id": "3577067",
    "name": "(2011 QE48)",
    "designation": "2011 QE48",
    "nasa_jpl_url": "http://ssd.jpl.nasa.gov/sbdb.cgi?sstr=3577067",
    "absolute_magnitude_h": 21.6,
    "estimated_diameter": {
        "kilometers": {
            "estimated_diameter_min": 0.1272198785,
            "estimated_diameter_max": 0.2844722965
        },
        "meters": {
            "estimated_diameter_min": 127.2198785394,
            "estimated_diameter_max": 284.4722965033
        },
        "miles": {
            "estimated_diameter_min": 0.0790507431,
            "estimated_diameter_max": 0.1767628354
        },
        "feet": {
            "estimated_diameter_min": 417.3880663071,
            "estimated_diameter_max": 933.3080892598
        }
    },
    "is_potentially_hazardous_asteroid": false,
    "close_approach_data": [
        {
            "close_approach_date": "1982-09-11",
            "close_approach_date_full": "1982-Sep-11 17:47",
            "epoch_date_close_approach": 400614420000,
            "relative_velocity": {
                "kilometers_per_second": "12.5550913632",
                "kilometers_per_hour": "45198.3289075484",
                "miles_per_hour": "28084.4838703598"
            },
            "miss_distance": {
                "astronomical": "0.2847025596",
                "lunar": "110.7492956844",
                "kilometers": "42590896.499708052",
                "miles": "26464755.8978810376"
            },
            "orbiting_body": "Earth"
        },
        {
            "close_approach_date": "2011-08-31",
            "close_approach_date_full": "2011-Aug-31 10:12",
            "epoch_date_close_approach": 1314785520000,
            "relative_velocity": {
                "kilometers_per_second": "8.4408948113",
                "kilometers_per_hour": "30387.2213207562",
                "miles_per_hour": "18881.4376034443"
            },
            "miss_distance": {
                "astronomical": "0.1350223503",
                "lunar": "52.5236942667",
                "kilometers": "20199056.007273861",
                "miles": "12551111.4001508418"
            },
            "orbiting_body": "Earth"
        },
        {
            "close_approach_date": "2040-08-11",
            "close_approach_date_full": "2040-Aug-11 21:39",
            "epoch_date_close_approach": 2228333940000,
            "relative_velocity": {
                "kilometers_per_second": "9.2011254275",
                "kilometers_per_hour": "33124.0515389329",
                "miles_per_hour": "20581.9974687331"
            },
            "miss_distance": {
                "astronomical": "0.2604463336",
                "lunar": "101.3136237704",
                "kilometers": "38962216.755869432",
                "miles": "24209998.8595328816"
            },
            "orbiting_body": "Earth"
        },
        {
            "close_approach_date": "2058-09-14",
            "close_approach_date_full": "2058-Sep-14 17:32",
            "epoch_date_close_approach": 2799250320000,
            "relative_velocity": {
                "kilometers_per_second": "13.2141174498",
                "kilometers_per_hour": "47570.8228191407",
                "miles_per_hour": "29558.6593233711"
            },
            "miss_distance": {
                "astronomical": "0.2971463794",
                "lunar": "115.5899415866",
                "kilometers": "44452465.436451878",
                "miles": "27621481.1971087964"
            },
            "orbiting_body": "Earth"
        }
    ],
    "orbital_data": {
        "orbit_id": "24",
        "orbit_determination_date": "2017-04-06 08:52:55",
        "first_observation_date": "2011-08-30",
        "last_observation_date": "2011-10-20",
        "data_arc_in_days": 51,
        "observations_used": 129,
        "orbit_uncertainty": "6",
        "minimum_orbit_intersection": ".135359",
        "jupiter_tisserand_invariant": "3.335",
        "epoch_osculation": "2459000.5",
        "eccentricity": ".5213588829684684",
        "semi_major_axis": "2.356288499199441",
        "inclination": "11.22422205241315",
        "ascending_node_longitude": "350.2735558484871",
        "orbital_period": "1321.116516563547",
        "perihelion_distance": "1.127816559305371",
        "perihelion_argument": "335.1188897679859",
        "aphelion_distance": "3.58476043909351",
        "perihelion_time": "2458433.535358612563",
        "mean_anomaly": "154.4960405387978",
        "mean_motion": ".2724967824461255",
        "equinox": "J2000",
        "orbit_class": {
            "orbit_class_type": "AMO",
            "orbit_class_description": "Near-Earth asteroid orbits similar to that of 1221 Amor",
            "orbit_class_range": "1.017 AU < q (perihelion) < 1.3 AU"
        }
    },
    "is_sentry_object": false
}